start=new Date('2023-06-30T00:00:00.000Z').valueOf();
sats=[{"FILE":"3945917","MEAN_MOTION_DDOT":"0.0000000000000","PERIOD":"95.713","TIME_SYSTEM":"UTC","OBJECT_TYPE":"PAYLOAD","ARG_OF_PERICENTER":"259.4179","CLASSIFICATION_TYPE":"U","BSTAR":"0.00005890000000","GP_ID":"234629481","SEMIMAJOR_AXIS":"6931.207","ECCENTRICITY":"0.00007990","MEAN_MOTION_DOT":"0.00000631","INCLINATION":"42.9997","NORAD_CAT_ID":"56381","REV_AT_EPOCH":"897","APOAPSIS":"553.625","ELEMENT_SET_NO":"999","OBJECT_ID":"2023-061H","LAUNCH_DATE":"2023-05-04","RA_OF_ASC_NODE":"146.2223","EPHEMERIS_TYPE":"0","COUNTRY_CODE":"US","CENTER_NAME":"EARTH","REF_FRAME":"TEME","EPOCH":"2023-06-29T08:36:20.918880","TLE_LINE1":"1 56381U 23061H   23180.35857545  .00000631  00000-0  58900-4 0  9997","OBJECT_NAME":"STARLINK-6159","PERIAPSIS":"552.518","MEAN_ANOMALY":"100.6574","MEAN_ELEMENT_THEORY":"SGP4","RCS_SIZE":"LARGE","TLE_LINE2":"2 56381  42.9997 146.2223 0000799 259.4179 100.6574 15.04490681  8972","SITE":"AFETR","MEAN_MOTION":"15.04490681","DECAY_DATE":null},{"APOAPSIS":"553.748","NORAD_CAT_ID":"56382","REV_AT_EPOCH":"893","ECCENTRICITY":"0.00009670","MEAN_MOTION_DOT":"-0.00000887","INCLINATION":"42.9996","SEMIMAJOR_AXIS":"6931.213","GP_ID":"234617153","BSTAR":"-0.00004780600000","CLASSIFICATION_TYPE":"U","ARG_OF_PERICENTER":"263.0991","TIME_SYSTEM":"UTC","OBJECT_TYPE":"PAYLOAD","PERIOD":"95.714","FILE":"3945416","MEAN_MOTION_DDOT":"0.0000000000000","MEAN_MOTION":"15.04488648","DECAY_DATE":null,"TLE_LINE2":"2 56382  42.9996 147.5362 0000967 263.0991  96.9742 15.04488648  8930","SITE":"AFETR","MEAN_ELEMENT_THEORY":"SGP4","RCS_SIZE":"LARGE","OBJECT_NAME":"STARLINK-6160","MEAN_ANOMALY":"96.9742","PERIAPSIS":"552.408","EPOCH":"2023-06-29T01:48:55.521504","TLE_LINE1":"1 56382U 23061J   23180.07564261 -.00000887  00000-0 -47806-4 0  9995","REF_FRAME":"TEME","CENTER_NAME":"EARTH","COUNTRY_CODE":"US","LAUNCH_DATE":"2023-05-04","RA_OF_ASC_NODE":"147.5362","EPHEMERIS_TYPE":"0","ELEMENT_SET_NO":"999","OBJECT_ID":"2023-061J"},{"MEAN_MOTION":"15.04485761","DECAY_DATE":null,"OBJECT_NAME":"STARLINK-6166","MEAN_ANOMALY":"113.8119","PERIAPSIS":"552.459","TLE_LINE2":"2 56383  43.0005 147.5716 0000905 246.2629 113.8119 15.04485761  8930","SITE":"AFETR","MEAN_ELEMENT_THEORY":"SGP4","RCS_SIZE":"LARGE","REF_FRAME":"TEME","CENTER_NAME":"EARTH","EPOCH":"2023-06-29T01:55:27.318720","TLE_LINE1":"1 56383U 23061K   23180.08017730 -.00000693  00000-0 -34129-4 0  9990","RA_OF_ASC_NODE":"147.5716","LAUNCH_DATE":"2023-05-04","EPHEMERIS_TYPE":"0","OBJECT_ID":"2023-061K","ELEMENT_SET_NO":"999","COUNTRY_CODE":"US","ECCENTRICITY":"0.00009050","INCLINATION":"43.0005","MEAN_MOTION_DOT":"-0.00000693","SEMIMAJOR_AXIS":"6931.222","APOAPSIS":"553.714","NORAD_CAT_ID":"56383","REV_AT_EPOCH":"893","CLASSIFICATION_TYPE":"U","GP_ID":"234617145","BSTAR":"-0.00003412900000","PERIOD":"95.714","ARG_OF_PERICENTER":"246.2629","OBJECT_TYPE":"PAYLOAD","TIME_SYSTEM":"UTC","FILE":"3945416","MEAN_MOTION_DDOT":"0.0000000000000"},{"COUNTRY_CODE":"US","ELEMENT_SET_NO":"999","OBJECT_ID":"2023-061L","LAUNCH_DATE":"2023-05-04","RA_OF_ASC_NODE":"145.6359","EPHEMERIS_TYPE":"0","TLE_LINE1":"1 56384U 23061L   23180.39552424  .00000360  00000-0  39842-4 0  9995","EPOCH":"2023-06-29T09:29:33.294336","CENTER_NAME":"EARTH","REF_FRAME":"TEME","RCS_SIZE":"LARGE","MEAN_ELEMENT_THEORY":"SGP4","TLE_LINE2":"2 56384  42.9992 145.6359 0000958 265.7879  94.2854 15.04489317  8981","SITE":"AFETR","PERIAPSIS":"552.412","MEAN_ANOMALY":"94.2854","OBJECT_NAME":"STARLINK-6153","DECAY_DATE":null,"MEAN_MOTION":"15.04489317","MEAN_MOTION_DDOT":"0.0000000000000","FILE":"3945917","OBJECT_TYPE":"PAYLOAD","TIME_SYSTEM":"UTC","ARG_OF_PERICENTER":"265.7879","PERIOD":"95.714","BSTAR":"0.00003984200000","GP_ID":"234629096","CLASSIFICATION_TYPE":"U","REV_AT_EPOCH":"898","NORAD_CAT_ID":"56384","APOAPSIS":"553.740","SEMIMAJOR_AXIS":"6931.211","INCLINATION":"42.9992","MEAN_MOTION_DOT":"0.00000360","ECCENTRICITY":"0.00009580"},{"FILE":"3945677","MEAN_MOTION_DDOT":"0.0000000000000","PERIOD":"95.714","TIME_SYSTEM":"UTC","OBJECT_TYPE":"PAYLOAD","ARG_OF_PERICENTER":"261.2890","CLASSIFICATION_TYPE":"U","BSTAR":"0.00002745400000","GP_ID":"234622756","SEMIMAJOR_AXIS":"6931.212","ECCENTRICITY":"0.00013070","INCLINATION":"43.0008","MEAN_MOTION_DOT":"0.00000183","NORAD_CAT_ID":"56385","REV_AT_EPOCH":"898","APOAPSIS":"553.982","OBJECT_ID":"2023-061M","ELEMENT_SET_NO":"999","RA_OF_ASC_NODE":"145.7024","LAUNCH_DATE":"2023-05-04","EPHEMERIS_TYPE":"0","COUNTRY_CODE":"US","CENTER_NAME":"EARTH","REF_FRAME":"TEME","EPOCH":"2023-06-29T09:41:55.412448","TLE_LINE1":"1 56385U 23061M   23180.40411357  .00000183  00000-0  27454-4 0  9996","OBJECT_NAME":"STARLINK-6173","PERIAPSIS":"552.171","MEAN_ANOMALY":"98.7805","MEAN_ELEMENT_THEORY":"SGP4","RCS_SIZE":"LARGE","SITE":"AFETR","TLE_LINE2":"2 56385  43.0008 145.7024 0001307 261.2890  98.7805 15.04489042  8985","MEAN_MOTION":"15.04489042","DECAY_DATE":null},{"MEAN_MOTION_DDOT":"0.0000000000000","FILE":"3945923","TIME_SYSTEM":"UTC","OBJECT_TYPE":"PAYLOAD","ARG_OF_PERICENTER":"258.0257","PERIOD":"95.838","BSTAR":"0.00135790000000","GP_ID":"234629202","CLASSIFICATION_TYPE":"U","REV_AT_EPOCH":"906","NORAD_CAT_ID":"56386","APOAPSIS":"560.235","SEMIMAJOR_AXIS":"6937.242","INCLINATION":"42.9999","MEAN_MOTION_DOT":"0.00018183","ECCENTRICITY":"0.00016260","COUNTRY_CODE":"US","ELEMENT_SET_NO":"999","OBJECT_ID":"2023-061N","EPHEMERIS_TYPE":"0","LAUNCH_DATE":"2023-05-04","RA_OF_ASC_NODE":"142.7100","TLE_LINE1":"1 56386U 23061N   23180.91667824  .00018183  00000-0  13579-2 0  9995","EPOCH":"2023-06-29T22:00:00.999936","CENTER_NAME":"EARTH","REF_FRAME":"TEME","RCS_SIZE":"LARGE","MEAN_ELEMENT_THEORY":"SGP4","SITE":"AFETR","TLE_LINE2":"2 56386  42.9999 142.7100 0001626 258.0257  83.5970 15.02527835  9066","MEAN_ANOMALY":"83.5970","PERIAPSIS":"557.979","OBJECT_NAME":"STARLINK-5836","DECAY_DATE":null,"MEAN_MOTION":"15.02527835"},{"COUNTRY_CODE":"US","ELEMENT_SET_NO":"999","OBJECT_ID":"2023-061P","LAUNCH_DATE":"2023-05-04","RA_OF_ASC_NODE":"145.6717","EPHEMERIS_TYPE":"0","TLE_LINE1":"1 56387U 23061P   23180.40010003  .00000018  00000-0  15822-4 0  9994","EPOCH":"2023-06-29T09:36:08.642592","CENTER_NAME":"EARTH","REF_FRAME":"TEME","RCS_SIZE":"LARGE","MEAN_ELEMENT_THEORY":"SGP4","TLE_LINE2":"2 56387  43.0008 145.6717 0001072 270.0410  90.0310 15.04487862  8984","SITE":"AFETR","PERIAPSIS":"552.337","MEAN_ANOMALY":"90.0310","OBJECT_NAME":"STARLINK-6178","DECAY_DATE":null,"MEAN_MOTION":"15.04487862","MEAN_MOTION_DDOT":"0.0000000000000","FILE":"3945683","TIME_SYSTEM":"UTC","OBJECT_TYPE":"PAYLOAD","ARG_OF_PERICENTER":"270.0410","PERIOD":"95.714","BSTAR":"0.00001582200000","GP_ID":"234622770","CLASSIFICATION_TYPE":"U","REV_AT_EPOCH":"898","NORAD_CAT_ID":"56387","APOAPSIS":"553.823","SEMIMAJOR_AXIS":"6931.215","INCLINATION":"43.0008","MEAN_MOTION_DOT":"0.00000018","ECCENTRICITY":"0.00010720"},{"TLE_LINE1":"1 56388U 23061Q   23180.91667824  .00014434  00000-0  10810-2 0  9997","EPOCH":"2023-06-29T22:00:00.999936","CENTER_NAME":"EARTH","REF_FRAME":"TEME","COUNTRY_CODE":"US","ELEMENT_SET_NO":"999","OBJECT_ID":"2023-061Q","EPHEMERIS_TYPE":"0","LAUNCH_DATE":"2023-05-04","RA_OF_ASC_NODE":"142.5946","DECAY_DATE":null,"MEAN_MOTION":"15.02548848","RCS_SIZE":"LARGE","MEAN_ELEMENT_THEORY":"SGP4","SITE":"AFETR","TLE_LINE2":"2 56388  42.9992 142.5946 0001264 256.0558 133.6539 15.02548848  9062","MEAN_ANOMALY":"133.6539","PERIAPSIS":"558.165","OBJECT_NAME":"STARLINK-6176","OBJECT_TYPE":"PAYLOAD","TIME_SYSTEM":"UTC","ARG_OF_PERICENTER":"256.0558","PERIOD":"95.837","MEAN_MOTION_DDOT":"0.0000000000000","FILE":"3945932","REV_AT_EPOCH":"906","NORAD_CAT_ID":"56388","APOAPSIS":"559.919","SEMIMAJOR_AXIS":"6937.177","MEAN_MOTION_DOT":"0.00014434","INCLINATION":"42.9992","ECCENTRICITY":"0.00012640","BSTAR":"0.00108100000000","GP_ID":"234629487","CLASSIFICATION_TYPE":"U"},{"CENTER_NAME":"EARTH","REF_FRAME":"TEME","TLE_LINE1":"1 56389U 23061R   23180.39154620 -.00001651  00000-0 -10150-3 0  9992","EPOCH":"2023-06-29T09:23:49.591680","OBJECT_ID":"2023-061R","ELEMENT_SET_NO":"999","LAUNCH_DATE":"2023-05-04","RA_OF_ASC_NODE":"145.6050","EPHEMERIS_TYPE":"0","COUNTRY_CODE":"US","DECAY_DATE":null,"MEAN_MOTION":"15.04481756","PERIAPSIS":"552.309","MEAN_ANOMALY":"89.3654","OBJECT_NAME":"STARLINK-6145","RCS_SIZE":"LARGE","MEAN_ELEMENT_THEORY":"SGP4","SITE":"AFETR","TLE_LINE2":"2 56389  42.9996 145.6050 0001140 270.7058  89.3654 15.04481756  8989","PERIOD":"95.714","TIME_SYSTEM":"UTC","OBJECT_TYPE":"PAYLOAD","ARG_OF_PERICENTER":"270.7058","MEAN_MOTION_DDOT":"0.0000000000000","FILE":"3945712","SEMIMAJOR_AXIS":"6931.234","INCLINATION":"42.9996","MEAN_MOTION_DOT":"-0.00001651","ECCENTRICITY":"0.00011400","REV_AT_EPOCH":"898","NORAD_CAT_ID":"56389","APOAPSIS":"553.889","CLASSIFICATION_TYPE":"U","BSTAR":"-0.00010150000000","GP_ID":"234623883"},{"MEAN_MOTION_DDOT":"0.0000000000000","FILE":"3945932","ARG_OF_PERICENTER":"259.0246","OBJECT_TYPE":"PAYLOAD","TIME_SYSTEM":"UTC","PERIOD":"93.673","GP_ID":"234629489","BSTAR":"-0.02703400000000","CLASSIFICATION_TYPE":"U","APOAPSIS":"455.024","REV_AT_EPOCH":"916","NORAD_CAT_ID":"56390","INCLINATION":"42.9983","MEAN_MOTION_DOT":"-0.00924665","ECCENTRICITY":"0.00012070","SEMIMAJOR_AXIS":"6832.334","COUNTRY_CODE":"US","LAUNCH_DATE":"2023-05-04","EPHEMERIS_TYPE":"0","RA_OF_ASC_NODE":"133.4611","OBJECT_ID":"2023-061S","ELEMENT_SET_NO":"999","TLE_LINE1":"1 56390U 23061S   23180.91667824 -.00924665  00000-0 -27034-1 0  9993","EPOCH":"2023-06-29T22:00:00.999936","REF_FRAME":"TEME","CENTER_NAME":"EARTH","SITE":"AFETR","TLE_LINE2":"2 56390  42.9983 133.4611 0001207 259.0246 303.2230 15.37266214  9163","RCS_SIZE":"LARGE","MEAN_ELEMENT_THEORY":"SGP4","PERIAPSIS":"453.375","MEAN_ANOMALY":"303.2230","OBJECT_NAME":"STARLINK-6300","DECAY_DATE":null,"MEAN_MOTION":"15.37266214"}];
